[{"OBJECT_NAME":"KOSEN-1","OBJECT_ID":"2021-102H","EPOCH":"2026-03-09T22:29:54.100608","MEAN_MOTION":15.25323573,"ECCENTRICITY":0.00138659,"INCLINATION":97.3334,"RA_OF_ASC_NODE":113.0569,"ARG_OF_PERICENTER":191.9191,"MEAN_ANOMALY":168.1721,"EPHEMERIS_TYPE":0,"CLASSIFICATION_TYPE":"U","NORAD_CAT_ID":49402,"ELEMENT_SET_NO":999,"REV_AT_EPOCH":23888,"BSTAR":0.00040411561,"MEAN_MOTION_DOT":0.00010142,"MEAN_MOTION_DDOT":0},{"OBJECT_NAME":"STARLINK-32929","OBJECT_ID":"2025-032S","EPOCH":"2026-03-09T03:19:00.410880","MEAN_MOTION":15.27578336,"ECCENTRICITY":0.00016098,"INCLINATION":43.0033,"RA_OF_ASC_NODE":339.3401,"ARG_OF_PERICENTER":273.9739,"MEAN_ANOMALY":86.0929,"EPHEMERIS_TYPE":0,"CLASSIFICATION_TYPE":"U","NORAD_CAT_ID":63021,"ELEMENT_SET_NO":999,"REV_AT_EPOCH":6053,"BSTAR":0.0011722462,"MEAN_MOTION_DOT":0.00032135,"MEAN_MOTION_DDOT":0}]
